NORAD_CAT_ID,OBJECT_NAME,OBJECT_TYPE,EPOCH,MEAN_MOTION,ECCENTRICITY,INCLINATION,RA_OF_ASC_NODE,ARG_OF_PERICENTER,MEAN_ANOMALY,BSTAR,MEAN_MOTION_DOT,MEAN_MOTION_DDOT,TLE_LINE0,TLE_LINE1,TLE_LINE2,SEMIMAJOR_AXIS,PERIOD,APOGEE,PERIGEE,DECAYED
55778.0,STARLINK-5816,PAYLOAD,2023-08-27 21:50:42,14.98334836,0.000349,70.0011,36.0066,256.8622,103.2147,6.5814e-05,6.92e-06,0.0,0 STARLINK-5816,1 55778U 23028AP  23239.91021233  .00000692  00000-0  65814-4 0  9992,2 55778  70.0011  36.0066 0003490 256.8622 103.2147 14.98334836 28019,6950.178,96.107,574.469,569.617,0.0
55778.0,STARLINK-5816,PAYLOAD,2023-08-28 10:39:47,14.98328217,0.0003066,70.0012,34.6597,273.391,86.6898,3.8989e-05,3.72e-06,0.0,0 STARLINK-5816,1 55778U 23028AP  23240.44429928  .00000372  00000-0  38989-4 0  9993,2 55778  70.0012  34.6597 0003066 273.3910  86.6898 14.98328217 28097,6950.198,96.107,574.194,569.932,0.0
55778.0,STARLINK-5816,PAYLOAD,2023-08-28 20:16:35,14.98332419,0.0002983,70.0006,33.6487,267.9176,92.1641,1.9346e-05,1.38e-06,0.0,0 STARLINK-5816,1 55778U 23028AP  23240.84485695  .00000138  00000-0  19346-4 0  9996,2 55778  70.0006  33.6487 0002983 267.9176  92.1641 14.98332419 28151,6950.185,96.107,574.124,569.977,0.0
55778.0,STARLINK-5816,PAYLOAD,2023-08-28 21:52:43,14.98338553,0.0002945,70.0005,33.4804,266.9978,93.0844,-4.3376e-05,-6.11e-06,0.0,0 STARLINK-5816,1 55778U 23028AP  23240.91161409 -.00000611  00000-0 -43376-4 0  9996,2 55778  70.0005  33.4804 0002945 266.9978  93.0844 14.98338553 28169,6950.166,96.106,574.078,569.985,0.0
55778.0,STARLINK-5816,PAYLOAD,2023-08-29 07:29:32,14.98330171,0.0002803,70.0009,32.4703,269.3749,90.7089,-1.9791e-05,-3.29e-06,0.0,0 STARLINK-5816,1 55778U 23028AP  23241.31217959 -.00000329  00000-0 -19791-4 0  9993,2 55778  70.0009  32.4703 0002803 269.3749  90.7089 14.98330171 28226,6950.192,96.107,574.006,570.109,0.0
55778.0,STARLINK-5816,PAYLOAD,2023-08-29 20:18:36,14.9833112,0.0003004,70.0009,31.1239,270.7197,89.3618,2.0512e-05,1.52e-06,0.0,0 STARLINK-5816,1 55778U 23028AP  23241.84625740  .00000152  00000-0  20512-4 0  9997,2 55778  70.0009  31.1239 0003004 270.7197  89.3618 14.98331120 28309,6950.189,96.107,574.142,569.967,0.0
55778.0,STARLINK-5816,PAYLOAD,2023-08-30 13:56:05,14.98330583,0.0003066,70.0007,29.2724,270.7314,89.3494,-5.3324e-06,-1.57e-06,0.0,0 STARLINK-5816,1 55778U 23028AP  23242.58061767 -.00000157  00000-0 -53324-5 0  9997,2 55778  70.0007  29.2724 0003066 270.7314  89.3494 14.98330583 28419,6950.191,96.107,574.187,569.925,0.0
55778.0,STARLINK-5816,PAYLOAD,2023-08-31 02:45:09,14.98335659,0.0003098,70.0009,27.9259,269.786,90.2944,-4.6937e-05,-6.53e-06,0.0,0 STARLINK-5816,1 55778U 23028AP  23243.11469436 -.00000653  00000-0 -46937-4 0  9994,2 55778  70.0009  27.9259 0003098 269.7860  90.2944 14.98335659 28496,6950.175,96.107,574.194,569.887,0.0
55778.0,STARLINK-5816,PAYLOAD,2023-09-01 02:47:10,14.98328041,0.0003066,70.0013,25.401,271.1151,88.9657,-3.956e-05,-5.65e-06,0.0,0 STARLINK-5816,1 55778U 23028AP  23244.11609940 -.00000565  00000-0 -39560-4 0  9997,2 55778  70.0013  25.4010 0003066 271.1151  88.9657 14.98328041 28643,6950.199,96.107,574.195,569.933,0.0
55778.0,STARLINK-5816,PAYLOAD,2023-09-01 18:48:31,14.98331715,0.0002915,70.0016,23.718,271.4621,88.6204,1.3157e-05,6.4e-07,0.0,0 STARLINK-5816,1 55778U 23028AP  23244.78369607  .00000064  00000-0  13157-4 0  9999,2 55778  70.0016  23.7180 0002915 271.4621  88.6204 14.98331715 28740,6950.188,96.107,574.079,570.027,0.0
55778.0,STARLINK-5816,PAYLOAD,2023-09-02 02:49:11,14.98329075,0.000303,70.0014,22.8764,270.079,90.0022,-1.2339e-05,-2.4e-06,0.0,0 STARLINK-5816,1 55778U 23028AP  23245.11749780 -.00000240  00000-0 -12339-4 0  9990,2 55778  70.0014  22.8764 0003030 270.0790  90.0022 14.98329075 28793,6950.196,96.107,574.167,569.955,0.0
55778.0,STARLINK-5816,PAYLOAD,2023-09-02 12:26:00,14.9832664,0.0002783,70.0028,21.8668,271.5495,88.5345,4.2514e-06,-4.2e-07,0.0,0 STARLINK-5816,1 55778U 23028AP  23245.51806038 -.00000042  00000-0  42514-5 0  9992,2 55778  70.0028  21.8668 0002783 271.5495  88.5345 14.98326640 28854,6950.203,96.107,574.003,570.134,0.0
55778.0,STARLINK-5816,PAYLOAD,2023-09-02 20:26:39,14.9833975,0.0003594,70.0024,21.0253,260.1432,99.9322,8.377e-05,9.07e-06,0.0,0 STARLINK-5816,1 55778U 23028AP  23245.85184721  .00000907  00000-0  83770-4 0  9994,2 55778  70.0024  21.0253 0003594 260.1432  99.9322 14.98339750 28901,6950.163,96.106,574.526,569.53,0.0
55778.0,STARLINK-5816,PAYLOAD,2023-09-03 07:39:36,14.98336791,0.0003077,70.0036,19.847,273.8123,86.2684,6.444e-05,6.76e-06,0.0,0 STARLINK-5816,1 55778U 23028AP  23246.31916989  .00000676  00000-0  64440-4 0  9991,2 55778  70.0036  19.8470 0003077 273.8123  86.2684 14.98336791 28973,6950.172,96.107,574.175,569.898,0.0
55778.0,STARLINK-5816,PAYLOAD,2023-09-03 18:52:32,14.98333223,0.0003129,70.0012,18.6686,269.0603,91.0198,5.498e-05,5.63e-06,0.0,0 STARLINK-5816,1 55778U 23028AP  23246.78649143  .00000563  00000-0  54980-4 0  9990,2 55778  70.0012  18.6686 0003129 269.0603  91.0198 14.98333223 29041,6950.183,96.107,574.223,569.873,0.0
55778.0,STARLINK-5816,PAYLOAD,2023-09-04 15:42:18,14.98329491,0.0002836,70.0023,16.4785,274.647,85.4365,-5.5587e-05,-7.56e-06,0.0,0 STARLINK-5816,1 55778U 23028AP  23247.65437876 -.00000756  00000-0 -55587-4 0  9995,2 55778  70.0023  16.4785 0002836 274.6470  85.4365 14.98329491 29176,6950.194,96.107,574.031,570.088,0.0
55778.0,STARLINK-5816,PAYLOAD,2023-09-05 01:19:06,14.98330096,0.0002936,70.0021,15.4698,271.271,88.8113,-5.1042e-05,-7.02e-06,0.0,0 STARLINK-5816,1 55778U 23028AP  23248.05493825 -.00000702  00000-0 -51042-4 0  9999,2 55778  70.0021  15.4698 0002936 271.2710  88.8113 14.98330096 29235,6950.193,96.107,574.098,570.017,0.0
55778.0,STARLINK-5816,PAYLOAD,2023-09-06 01:21:06,14.98345659,0.000324,70.0017,12.9451,268.9039,91.1748,-0.00013946,-1.757e-05,0.0,0 STARLINK-5816,1 55778U 23028AP  23249.05632746 -.00001757  00000-0 -13946-3 0  9998,2 55778  70.0017  12.9451 0003240 268.9039  91.1748 14.98345659 29383,6950.144,96.106,574.261,569.758,0.0
55778.0,STARLINK-5816,PAYLOAD,2023-09-06 18:58:36,14.98327502,0.0003165,70.0019,11.0939,268.6373,91.4424,3.6364e-05,3.41e-06,0.0,0 STARLINK-5816,1 55778U 23028AP  23249.79069490  .00000341  00000-0  36364-4 0  9995,2 55778  70.0019  11.0939 0003165 268.6373  91.4424 14.98327502 29493,6950.201,96.107,574.265,569.866,0.0
55778.0,STARLINK-5816,PAYLOAD,2023-09-07 01:23:08,14.98326668,0.0003189,70.002,10.4205,270.4864,89.593,-2.2162e-05,-3.57e-06,0.0,0 STARLINK-5816,1 55778U 23028AP  23250.05773728 -.00000357  00000-0 -22162-4 0  9992,2 55778  70.0020  10.4205 0003189 270.4864  89.5930 14.98326668 29533,6950.203,96.107,574.285,569.852,0.0
55778.0,STARLINK-5816,PAYLOAD,2023-09-07 09:23:49,14.98326848,0.0003026,70.0023,9.5795,270.2322,89.849,-7.453e-05,-9.82e-06,0.0,0 STARLINK-5816,1 55778U 23028AP  23250.39153970 -.00000982  00000-0 -74530-4 0  9990,2 55778  70.0023   9.5795 0003026 270.2322  89.8490 14.98326848 29585,6950.203,96.107,574.171,569.965,0.0
55778.0,STARLINK-5816,PAYLOAD,2023-09-07 20:36:44,14.98337941,0.00034,70.0034,8.4031,274.5951,85.4819,6.5391e-05,6.87e-06,0.0,0 STARLINK-5816,1 55778U 23028AP  23250.85884813  .00000687  00000-0  65391-4 0  9993,2 55778  70.0034   8.4031 0003400 274.5951  85.4819 14.98337941 29650,6950.168,96.106,574.396,569.67,0.0
55778.0,STARLINK-5816,PAYLOAD,2023-09-08 01:25:07,14.98347181,0.0003669,70.0036,7.8949,269.6636,90.4103,0.00013905,1.567e-05,0.0,0 STARLINK-5816,1 55778U 23028AP  23251.05911760  .00001567  00000-0  13905-3 0  9999,2 55778  70.0036   7.8949 0003669 269.6636  90.4103 14.98347181 29687,6950.14,96.106,574.555,569.455,0.0
55778.0,STARLINK-5816,PAYLOAD,2023-09-08 12:38:03,14.98352853,0.0003276,70.0019,6.7178,270.8304,89.248,0.00021025,2.418e-05,0.0,0 STARLINK-5816,1 55778U 23028AP  23251.52642798  .00002418  00000-0  21025-3 0  9991,2 55778  70.0019   6.7178 0003276 270.8304  89.2480 14.98352853 29754,6950.122,96.106,574.264,569.71,0.0
55778.0,STARLINK-5816,PAYLOAD,2023-09-08 17:26:27,14.98354062,0.0003207,70.0019,6.2134,270.8662,89.2129,0.00029867,3.475e-05,0.0,0 STARLINK-5816,1 55778U 23028AP  23251.72670180  .00003475  00000-0  29867-3 0  9995,2 55778  70.0019   6.2134 0003207 270.8662  89.2129 14.98354062 29789,6950.118,96.105,574.212,569.755,0.0
55778.0,STARLINK-5816,PAYLOAD,2023-09-09 11:03:58,14.98316498,0.0003339,70.0002,4.3601,272.5223,87.5554,-6.155e-05,-8.27e-06,0.0,0 STARLINK-5816,1 55778U 23028AP  23252.46109251 -.00000827  00000-0 -61550-4 0  9999,2 55778  70.0002   4.3601 0003339 272.5223  87.5554 14.98316498 29893,6950.235,96.108,574.42,569.779,0.0
55778.0,STARLINK-5816,PAYLOAD,2023-09-09 14:16:14,14.98318092,0.0003166,70.0011,4.0242,271.6084,88.4713,-0.00014187,-1.785e-05,0.0,0 STARLINK-5816,1 55778U 23028AP  23252.59461482 -.00001785  00000-0 -14187-3 0  9997,2 55778  70.0011   4.0242 0003166 271.6084  88.4713 14.98318092 29916,6950.23,96.108,574.295,569.894,0.0
55778.0,STARLINK-5816,PAYLOAD,2023-09-10 01:29:11,14.98326958,0.000326,70.0019,2.8465,270.2089,89.8697,-0.00024516,-3.017e-05,0.0,0 STARLINK-5816,1 55778U 23028AP  23253.06193297 -.00003017  00000-0 -24516-3 0  9993,2 55778  70.0019   2.8465 0003260 270.2089  89.8697 14.98326958 29985,6950.202,96.107,574.333,569.802,0.0
55778.0,STARLINK-5816,PAYLOAD,2023-09-10 12:42:07,14.98332704,0.0003017,70.0023,1.669,270.7341,89.3473,-0.0002577,-3.167e-05,0.0,0 STARLINK-5816,1 55778U 23028AP  23253.52924992 -.00003167  00000-0 -25770-3 0  9997,2 55778  70.0023   1.6690 0003017 270.7341  89.3473 14.98332704 30056,6950.185,96.107,574.146,569.953,0.0
55778.0,STARLINK-5816,PAYLOAD,2023-09-10 17:30:31,14.98336162,0.0003008,70.0024,1.1643,271.1095,88.9719,-0.00022743,-2.806e-05,0.0,0 STARLINK-5816,1 55778U 23028AP  23253.72952660 -.00002806  00000-0 -22743-3 0  9998,2 55778  70.0024   1.1643 0003008 271.1095  88.9719 14.98336162 30084,6950.174,96.107,574.129,569.948,0.0
